[{"COMMENT":"GENERATED VIA SPACETRACK.ORG API","ORIGINATOR":"18 SPCS","NORAD_CAT_ID":"45120","OBJECT_NAME":"VPM","OBJECT_TYPE":"PAYLOAD","CLASSIFICATION_TYPE":"U","INTLDES":"19071K","EPOCH":"2020-07-01 18:30:45","EPOCH_MICROSECONDS":"491904","MEAN_MOTION":"15.34106412","ECCENTRICITY":"0.0012314","INCLINATION":"51.6434","RA_OF_ASC_NODE":"293.8053","ARG_OF_PERICENTER":"105.3281","MEAN_ANOMALY":"254.9063","EPHEMERIS_TYPE":"0","ELEMENT_SET_NO":"999","REV_AT_EPOCH":"2321","BSTAR":"0.000083498","MEAN_MOTION_DOT":"0.00002421","MEAN_MOTION_DDOT":"0","FILE":"2777248","TLE_LINE0":"0 VPM","TLE_LINE1":"1 45120U 19071K   20183.77135986 +.00002421 +00000-0 +83498-4 0  9995","TLE_LINE2":"2 45120 051.6434 293.8053 0012314 105.3281 254.9063 15.34106412023212","OBJECT_ID":"2019-071K","OBJECT_NUMBER":"45120","SEMIMAJOR_AXIS":"6841.712","PERIOD":"93.865","APOGEE":"472.002","PERIGEE":"455.153","DECAYED":"0"},{"COMMENT":"GENERATED VIA SPACETRACK.ORG API","ORIGINATOR":"18 SPCS","NORAD_CAT_ID":"45120","OBJECT_NAME":"VPM","OBJECT_TYPE":"PAYLOAD","CLASSIFICATION_TYPE":"U","INTLDES":"19071K","EPOCH":"2020-07-02 00:45:58","EPOCH_MICROSECONDS":"546368","MEAN_MOTION":"15.34108043","ECCENTRICITY":"0.0012307","INCLINATION":"51.6435","RA_OF_ASC_NODE":"292.5452","ARG_OF_PERICENTER":"106.1965","MEAN_ANOMALY":"254.0373","EPHEMERIS_TYPE":"0","ELEMENT_SET_NO":"999","REV_AT_EPOCH":"2325","BSTAR":"0.000081992","MEAN_MOTION_DOT":"0.00002371","MEAN_MOTION_DDOT":"0","FILE":"2777540","TLE_LINE0":"0 VPM","TLE_LINE1":"1 45120U 19071K   20184.03192762 +.00002371 +00000-0 +81992-4 0  9991","TLE_LINE2":"2 45120 051.6435 292.5452 0012307 106.1965 254.0373 15.34108043023253","OBJECT_ID":"2019-071K","OBJECT_NUMBER":"45120","SEMIMAJOR_AXIS":"6841.708","PERIOD":"93.865","APOGEE":"471.993","PERIGEE":"455.153","DECAYED":"0"},{"COMMENT":"GENERATED VIA SPACETRACK.ORG API","ORIGINATOR":"18 SPCS","NORAD_CAT_ID":"45120","OBJECT_NAME":"VPM","OBJECT_TYPE":"PAYLOAD","CLASSIFICATION_TYPE":"U","INTLDES":"19071K","EPOCH":"2020-07-02 16:24:01","EPOCH_MICROSECONDS":"92672","MEAN_MOTION":"15.3411136","ECCENTRICITY":"0.0012297","INCLINATION":"51.6435","RA_OF_ASC_NODE":"289.3947","ARG_OF_PERICENTER":"108.4419","MEAN_ANOMALY":"251.7901","EPHEMERIS_TYPE":"0","ELEMENT_SET_NO":"999","REV_AT_EPOCH":"2335","BSTAR":"0.00007264","MEAN_MOTION_DOT":"0.00002057","MEAN_MOTION_DDOT":"0","FILE":"2777718","TLE_LINE0":"0 VPM","TLE_LINE1":"1 45120U 19071K   20184.68334598  .00002057  00000-0  72640-4 0  9998","TLE_LINE2":"2 45120  51.6435 289.3947 0012297 108.4419 251.7901 15.34111360 23351","OBJECT_ID":"2019-071K","OBJECT_NUMBER":"45120","SEMIMAJOR_AXIS":"6841.698","PERIOD":"93.865","APOGEE":"471.976","PERIGEE":"455.150","DECAYED":"0"},{"COMMENT":"GENERATED VIA SPACETRACK.ORG API","ORIGINATOR":"18 SPCS","NORAD_CAT_ID":"45120","OBJECT_NAME":"VPM","OBJECT_TYPE":"PAYLOAD","CLASSIFICATION_TYPE":"U","INTLDES":"19071K","EPOCH":"2020-07-02 17:57:49","EPOCH_MICROSECONDS":"347648","MEAN_MOTION":"15.34111609","ECCENTRICITY":"0.0012295","INCLINATION":"51.6434","RA_OF_ASC_NODE":"289.0797","ARG_OF_PERICENTER":"108.649","MEAN_ANOMALY":"251.5828","EPHEMERIS_TYPE":"0","ELEMENT_SET_NO":"999","REV_AT_EPOCH":"2336","BSTAR":"0.000071461","MEAN_MOTION_DOT":"0.00002017","MEAN_MOTION_DDOT":"0","FILE":"2777903","TLE_LINE0":"0 VPM","TLE_LINE1":"1 45120U 19071K   20184.74848782 +.00002017 +00000-0 +71461-4 0  9996","TLE_LINE2":"2 45120 051.6434 289.0797 0012295 108.6490 251.5828 15.34111609023362","OBJECT_ID":"2019-071K","OBJECT_NUMBER":"45120","SEMIMAJOR_AXIS":"6841.697","PERIOD":"93.865","APOGEE":"471.974","PERIGEE":"455.150","DECAYED":"0"},{"COMMENT":"GENERATED VIA SPACETRACK.ORG API","ORIGINATOR":"18 SPCS","NORAD_CAT_ID":"45120","OBJECT_NAME":"VPM","OBJECT_TYPE":"PAYLOAD","CLASSIFICATION_TYPE":"U","INTLDES":"19071K","EPOCH":"2020-07-03 00:13:02","EPOCH_MICROSECONDS":"325216","MEAN_MOTION":"15.34112925","ECCENTRICITY":"0.0012287","INCLINATION":"51.6435","RA_OF_ASC_NODE":"287.8195","ARG_OF_PERICENTER":"109.5747","MEAN_ANOMALY":"250.6563","EPHEMERIS_TYPE":"0","ELEMENT_SET_NO":"999","REV_AT_EPOCH":"2340","BSTAR":"0.000068585","MEAN_MOTION_DOT":"0.0000192","MEAN_MOTION_DDOT":"0","FILE":"2778389","TLE_LINE0":"0 VPM","TLE_LINE1":"1 45120U 19071K   20185.00905469 +.00001920 +00000-0 +68585-4 0  9997","TLE_LINE2":"2 45120 051.6435 287.8195 0012287 109.5747 250.6563 15.34112925023400","OBJECT_ID":"2019-071K","OBJECT_NUMBER":"45120","SEMIMAJOR_AXIS":"6841.693","PERIOD":"93.865","APOGEE":"471.965","PERIGEE":"455.152","DECAYED":"0"},{"COMMENT":"GENERATED VIA SPACETRACK.ORG API","ORIGINATOR":"18 SPCS","NORAD_CAT_ID":"45120","OBJECT_NAME":"VPM","OBJECT_TYPE":"PAYLOAD","CLASSIFICATION_TYPE":"U","INTLDES":"19071K","EPOCH":"2020-07-03 17:24:52","EPOCH_MICROSECONDS":"962336","MEAN_MOTION":"15.34115728","ECCENTRICITY":"0.0012278","INCLINATION":"51.6433","RA_OF_ASC_NODE":"284.354","ARG_OF_PERICENTER":"112.0409","MEAN_ANOMALY":"248.1879","EPHEMERIS_TYPE":"0","ELEMENT_SET_NO":"999","REV_AT_EPOCH":"2351","BSTAR":"0.000057859","MEAN_MOTION_DOT":"0.0000156","MEAN_MOTION_DDOT":"0","FILE":"2778492","TLE_LINE0":"0 VPM","TLE_LINE1":"1 45120U 19071K   20185.72561299  .00001560  00000-0  57859-4 0  9997","TLE_LINE2":"2 45120  51.6433 284.3540 0012278 112.0409 248.1879 15.34115728 23516","OBJECT_ID":"2019-071K","OBJECT_NUMBER":"45120","SEMIMAJOR_AXIS":"6841.685","PERIOD":"93.865","APOGEE":"471.950","PERIGEE":"455.150","DECAYED":"0"},{"COMMENT":"GENERATED VIA SPACETRACK.ORG API","ORIGINATOR":"18 SPCS","NORAD_CAT_ID":"45120","OBJECT_NAME":"VPM","OBJECT_TYPE":"PAYLOAD","CLASSIFICATION_TYPE":"U","INTLDES":"19071K","EPOCH":"2020-07-04 13:44:19","EPOCH_MICROSECONDS":"938336","MEAN_MOTION":"15.34118988","ECCENTRICITY":"0.001226","INCLINATION":"51.6432","RA_OF_ASC_NODE":"280.2585","ARG_OF_PERICENTER":"114.9862","MEAN_ANOMALY":"245.2395","EPHEMERIS_TYPE":"0","ELEMENT_SET_NO":"999","REV_AT_EPOCH":"2364","BSTAR":"0.00005141","MEAN_MOTION_DOT":"0.00001343","MEAN_MOTION_DDOT":"0","FILE":"2779030","TLE_LINE0":"0 VPM","TLE_LINE1":"1 45120U 19071K   20186.57245299 +.00001343 +00000-0 +51410-4 0  9996","TLE_LINE2":"2 45120 051.6432 280.2585 0012260 114.9862 245.2395 15.34118988023640","OBJECT_ID":"2019-071K","OBJECT_NUMBER":"45120","SEMIMAJOR_AXIS":"6841.675","PERIOD":"93.864","APOGEE":"471.928","PERIGEE":"455.152","DECAYED":"0"},{"COMMENT":"GENERATED VIA SPACETRACK.ORG API","ORIGINATOR":"18 SPCS","NORAD_CAT_ID":"45120","OBJECT_NAME":"VPM","OBJECT_TYPE":"PAYLOAD","CLASSIFICATION_TYPE":"U","INTLDES":"19071K","EPOCH":"2020-07-04 18:25:44","EPOCH_MICROSECONDS":"597856","MEAN_MOTION":"15.34120071","ECCENTRICITY":"0.0012253","INCLINATION":"51.6431","RA_OF_ASC_NODE":"279.3134","ARG_OF_PERICENTER":"115.6388","MEAN_ANOMALY":"244.5862","EPHEMERIS_TYPE":"0","ELEMENT_SET_NO":"999","REV_AT_EPOCH":"2367","BSTAR":"0.000053489","MEAN_MOTION_DOT":"0.00001413","MEAN_MOTION_DDOT":"0","FILE":"2779242","TLE_LINE0":"0 VPM","TLE_LINE1":"1 45120U 19071K   20186.76787729 +.00001413 +00000-0 +53489-4 0  9992","TLE_LINE2":"2 45120 051.6431 279.3134 0012253 115.6388 244.5862 15.34120071023671","OBJECT_ID":"2019-071K","OBJECT_NUMBER":"45120","SEMIMAJOR_AXIS":"6841.672","PERIOD":"93.864","APOGEE":"471.920","PERIGEE":"455.154","DECAYED":"0"},{"COMMENT":"GENERATED VIA SPACETRACK.ORG API","ORIGINATOR":"18 SPCS","NORAD_CAT_ID":"45120","OBJECT_NAME":"VPM","OBJECT_TYPE":"PAYLOAD","CLASSIFICATION_TYPE":"U","INTLDES":"19071K","EPOCH":"2020-07-04 23:07:09","EPOCH_MICROSECONDS":"259968","MEAN_MOTION":"15.34120656","ECCENTRICITY":"0.0012248","INCLINATION":"51.6431","RA_OF_ASC_NODE":"278.3682","ARG_OF_PERICENTER":"116.3282","MEAN_ANOMALY":"243.8959","EPHEMERIS_TYPE":"0","ELEMENT_SET_NO":"999","REV_AT_EPOCH":"2370","BSTAR":"0.000051531","MEAN_MOTION_DOT":"0.00001348","MEAN_MOTION_DDOT":"0","FILE":"2779424","TLE_LINE0":"0 VPM","TLE_LINE1":"1 45120U 19071K   20186.96330162  .00001348  00000-0  51531-4 0  9992","TLE_LINE2":"2 45120  51.6431 278.3682 0012248 116.3282 243.8959 15.34120656 23705","OBJECT_ID":"2019-071K","OBJECT_NUMBER":"45120","SEMIMAJOR_AXIS":"6841.670","PERIOD":"93.864","APOGEE":"471.915","PERIGEE":"455.155","DECAYED":"0"},{"COMMENT":"GENERATED VIA SPACETRACK.ORG API","ORIGINATOR":"18 SPCS","NORAD_CAT_ID":"45120","OBJECT_NAME":"VPM","OBJECT_TYPE":"PAYLOAD","CLASSIFICATION_TYPE":"U","INTLDES":"19071K","EPOCH":"2020-07-05 13:11:23","EPOCH_MICROSECONDS":"167680","MEAN_MOTION":"15.3412386","ECCENTRICITY":"0.0012236","INCLINATION":"51.643","RA_OF_ASC_NODE":"275.5329","ARG_OF_PERICENTER":"118.3637","MEAN_ANOMALY":"241.8581","EPHEMERIS_TYPE":"0","ELEMENT_SET_NO":"999","REV_AT_EPOCH":"2379","BSTAR":"0.00006023","MEAN_MOTION_DOT":"0.0000164","MEAN_MOTION_DDOT":"0","FILE":"2779738","TLE_LINE0":"0 VPM","TLE_LINE1":"1 45120U 19071K   20187.54957370 +.00001640 +00000-0 +60230-4 0  9994","TLE_LINE2":"2 45120 051.6430 275.5329 0012236 118.3637 241.8581 15.34123860023792","OBJECT_ID":"2019-071K","OBJECT_NUMBER":"45120","SEMIMAJOR_AXIS":"6841.661","PERIOD":"93.864","APOGEE":"471.897","PERIGEE":"455.154","DECAYED":"0"},{"COMMENT":"GENERATED VIA SPACETRACK.ORG API","ORIGINATOR":"18 SPCS","NORAD_CAT_ID":"45120","OBJECT_NAME":"VPM","OBJECT_TYPE":"PAYLOAD","CLASSIFICATION_TYPE":"U","INTLDES":"19071K","EPOCH":"2020-07-05 17:52:47","EPOCH_MICROSECONDS":"793504","MEAN_MOTION":"15.3412467","ECCENTRICITY":"0.0012228","INCLINATION":"51.6429","RA_OF_ASC_NODE":"274.5878","ARG_OF_PERICENTER":"119.062","MEAN_ANOMALY":"241.1588","EPHEMERIS_TYPE":"0","ELEMENT_SET_NO":"999","REV_AT_EPOCH":"2382","BSTAR":"0.000061308","MEAN_MOTION_DOT":"0.00001677","MEAN_MOTION_DDOT":"0","FILE":"2779942","TLE_LINE0":"0 VPM","TLE_LINE1":"1 45120U 19071K   20187.74499761 +.00001677 +00000-0 +61308-4 0  9998","TLE_LINE2":"2 45120 051.6429 274.5878 0012228 119.0620 241.1588 15.34124670023823","OBJECT_ID":"2019-071K","OBJECT_NUMBER":"45120","SEMIMAJOR_AXIS":"6841.658","PERIOD":"93.864","APOGEE":"471.889","PERIGEE":"455.157","DECAYED":"0"}]